[{"OBJECT_NAME":"CHECKMATE 5","OBJECT_ID":"2023-050B","EPOCH":"2026-03-09T17:13:01.638912","MEAN_MOTION":13.84966378,"ECCENTRICITY":0.00060126,"INCLINATION":81.004,"RA_OF_ASC_NODE":166.9717,"ARG_OF_PERICENTER":219.7953,"MEAN_ANOMALY":140.2763,"EPHEMERIS_TYPE":0,"CLASSIFICATION_TYPE":"U","NORAD_CAT_ID":56163,"ELEMENT_SET_NO":999,"REV_AT_EPOCH":14839,"BSTAR":0.0001009833,"MEAN_MOTION_DOT":1.25e-6,"MEAN_MOTION_DDOT":0},{"OBJECT_NAME":"SDA_1668","OBJECT_ID":"2025-230E","EPOCH":"2026-03-09T17:28:24.297600","MEAN_MOTION":13.85494162,"ECCENTRICITY":0.00045481,"INCLINATION":81.3,"RA_OF_ASC_NODE":303.8056,"ARG_OF_PERICENTER":118.5208,"MEAN_ANOMALY":241.6407,"EPHEMERIS_TYPE":0,"CLASSIFICATION_TYPE":"U","NORAD_CAT_ID":65978,"ELEMENT_SET_NO":999,"REV_AT_EPOCH":2005,"BSTAR":0.00023740567,"MEAN_MOTION_DOT":2.83e-6,"MEAN_MOTION_DDOT":0}]
